{"type": "FeatureCollection", "features": [ {"type": "Feature", "properties": {"norad_id": 43437, "name": "SENTINEL-3B", "group": "resource", "lat": -63.34509219026944, "lon": -131.34549360540476, "alt_km": 810.8611451654015, "timestamp": "2025-12-27T06:41:30.556271+00:00", "meta": {"OBJECT_NAME": "SENTINEL-3B", "OBJECT_ID": "2018-039A", "EPOCH": "2025-12-26T22:48:58.746816", "MEAN_MOTION": 14.26739583, "ECCENTRICITY": 0.00015662, "INCLINATION": 98.6249, "RA_OF_ASC_NODE": 65.9311, "ARG_OF_PERICENTER": 87.719, "MEAN_ANOMALY": 272.417, "EPHEMERIS_TYPE": 0, "CLASSIFICATION_TYPE": "U", "NORAD_CAT_ID": 43437, "ELEMENT_SET_NO": 999, "REV_AT_EPOCH": 39956, "BSTAR": 8.4299815e-05, "MEAN_MOTION_DOT": 1.6e-06, "MEAN_MOTION_DDOT": 0}, "tle": {"line1": "1 43437U 18039A   25360.95067994  .00000160  00000+0  84300-4 0  9992", "line2": "2 43437  98.6249  65.9311 0001566  87.7190 272.4170 14.26739583399569"}}, "geometry": {"type": "Point", "coordinates": [-131.34549360540476, -63.34509219026944]}}, {"type": "Feature", "properties": {"norad_id": 43461, "name": "GAOFEN-5 01", "group": "resource", "lat": -13.935572877709564, "lon": 142.3915017510086, "alt_km": 696.0370828868627, "timestamp": "2025-12-27T06:41:30.556281+00:00", "meta": {"OBJECT_NAME": "GAOFEN-5 01", "OBJECT_ID": "2018-043A", "EPOCH": "2025-12-26T21:35:04.986528", "MEAN_MOTION": 14.6042519, "ECCENTRICITY": 5.957e-05, "INCLINATION": 98.4347, "RA_OF_ASC_NODE": 324.1154, "ARG_OF_PERICENTER": 225.5814, "MEAN_ANOMALY": 134.5337, "EPHEMERIS_TYPE": 0, "CLASSIFICATION_TYPE": "U", "NORAD_CAT_ID": 43461, "ELEMENT_SET_NO": 999, "REV_AT_EPOCH": 40654, "BSTAR": 0.00012641217, "MEAN_MOTION_DOT": 5.63e-06, "MEAN_MOTION_DDOT": 0}, "tle": {"line1": "1 43461U 18043A   25360.89936327  .00000563  00000+0  12641-3 0  9997", "line2": "2 43461  98.4347 324.1154 0000595 225.5814 134.5337 14.60425190406548"}}, "geometry": {"type": "Point", "coordinates": [142.3915017510086, -13.935572877709564]}}, {"type": "Feature", "properties": {"norad_id": 43484, "name": "GAOFEN-6", "group": "resource", "lat": -46.27580553687125, "lon": 73.29667416920829, "alt_km": 643.47762103887, "timestamp": "2025-12-27T06:41:30.556292+00:00", "meta": {"OBJECT_NAME": "GAOFEN-6", "OBJECT_ID": "2018-048A", "EPOCH": "2025-12-26T22:46:17.177952", "MEAN_MOTION": 14.76591742, "ECCENTRICITY": 0.00123937, "INCLINATION": 97.8008, "RA_OF_ASC_NODE": 64.737, "ARG_OF_PERICENTER": 21.2671, "MEAN_ANOMALY": 338.9052, "EPHEMERIS_TYPE": 0, "CLASSIFICATION_TYPE": "U", "NORAD_CAT_ID": 43484, "ELEMENT_SET_NO": 999, "REV_AT_EPOCH": 40797, "BSTAR": 0.00016508203, "MEAN_MOTION_DOT": 1.104e-05, "MEAN_MOTION_DDOT": 0}, "tle": {"line1": "1 43484U 18048A   25360.94880993  .00001104  00000+0  16508-3 0  9998", "line2": "2 43484  97.8008  64.7370 0012393  21.2671 338.9052 14.76591742407974"}}, "geometry": {"type": "Point", "coordinates": [73.29667416920829, -46.27580553687125]}}, {"type": "Feature", "properties": {"norad_id": 43585, "name": "GAOFEN-11 01", "group": "resource", "lat": -33.65340473708662, "lon": 68.88956164379884, "alt_km": 424.063552986423, "timestamp": "2025-12-27T06:41:30.556302+00:00", "meta": {"OBJECT_NAME": "GAOFEN-11 01", "OBJECT_ID": "2018-063A", "EPOCH": "2025-12-26T23:05:20.801184", "MEAN_MOTION": 15.49612162, "ECCENTRICITY": 0.00039531, "INCLINATION": 97.1538, "RA_OF_ASC_NODE": 63.7788, "ARG_OF_PERICENTER": 238.8916, "MEAN_ANOMALY": 121.1949, "EPHEMERIS_TYPE": 0, "CLASSIFICATION_TYPE": "U", "NORAD_CAT_ID": 43585, "ELEMENT_SET_NO": 999, "REV_AT_EPOCH": 41362, "BSTAR": 0.00012195313, "MEAN_MOTION_DOT": 6.65e-05, "MEAN_MOTION_DDOT": 0}, "tle": {"line1": "1 43585U 18063A   25360.96204631  .00006650  00000+0  12195-3 0  9997", "line2": "2 43585  97.1538  63.7788 0003953 238.8916 121.1949 15.49612162413626"}}, "geometry": {"type": "Point", "coordinates": [68.88956164379884, -33.65340473708662]}}, {"type": "Feature", "properties": {"norad_id": 43613, "name": "ICESAT-2", "group": "resource", "lat": 32.7203030483206, "lon": -116.62795254832973, "alt_km": 478.5281397359113, "timestamp": "2025-12-27T06:41:30.556312+00:00", "meta": {"OBJECT_NAME": "ICESAT-2", "OBJECT_ID": "2018-070A", "EPOCH": "2025-12-26T22:41:29.791680", "MEAN_MOTION": 15.28284921, "ECCENTRICITY": 0.00032432, "INCLINATION": 92.0036, "RA_OF_ASC_NODE": 244.571, "ARG_OF_PERICENTER": 108.4155, "MEAN_ANOMALY": 251.7447, "EPHEMERIS_TYPE": 0, "CLASSIFICATION_TYPE": "U", "NORAD_CAT_ID": 43613, "ELEMENT_SET_NO": 999, "REV_AT_EPOCH": 40615, "BSTAR": 0.00052629335, "MEAN_MOTION_DOT": 0.00014505, "MEAN_MOTION_DDOT": 0}, "tle": {"line1": "1 43613U 18070A   25360.94548370  .00014505  00000+0  52629-3 0  9990", "line2": "2 43613  92.0036 244.5710 0003243 108.4155 251.7447 15.28284921406156"}}, "geometry": {"type": "Point", "coordinates": [-116.62795254832973, 32.7203030483206]}}, {"type": "Feature", "properties": {"norad_id": 43719, "name": "HYSIS", "group": "resource", "lat": 78.71122343028863, "lon": -70.97044430274798, "alt_km": 625.7603086526278, "timestamp": "2025-12-27T06:41:30.556323+00:00", "meta": {"OBJECT_NAME": "HYSIS", "OBJECT_ID": "2018-096A", "EPOCH": "2025-12-26T23:45:15.416928", "MEAN_MOTION": 14.7868174, "ECCENTRICITY": 7.51e-05, "INCLINATION": 98.0075, "RA_OF_ASC_NODE": 63.8964, "ARG_OF_PERICENTER": 56.6944, "MEAN_ANOMALY": 303.4339, "EPHEMERIS_TYPE": 0, "CLASSIFICATION_TYPE": "U", "NORAD_CAT_ID": 43719, "ELEMENT_SET_NO": 999, "REV_AT_EPOCH": 38197, "BSTAR": 0.00013562801, "MEAN_MOTION_DOT": 9.42e-06, "MEAN_MOTION_DDOT": 0}, "tle": {"line1": "1 43719U 18096A   25360.98976177  .00000942  00000+0  13563-3 0  9993", "line2": "2 43719  98.0075  63.8964 0000751  56.6944 303.4339 14.78681740381977"}}, "geometry": {"type": "Point", "coordinates": [-70.97044430274798, 78.71122343028863]}}, {"type": "Feature", "properties": {"norad_id": 43783, "name": "KAZSTSAT", "group": "resource", "lat": -24.440985501058492, "lon": 39.24577514359564, "alt_km": 572.8669811278814, "timestamp": "2025-12-27T06:41:30.556333+00:00", "meta": {"OBJECT_NAME": "KAZSTSAT", "OBJECT_ID": "2018-099AB", "EPOCH": "2025-12-26T21:11:29.558400", "MEAN_MOTION": 14.99376275, "ECCENTRICITY": 0.00064415, "INCLINATION": 97.4508, "RA_OF_ASC_NODE": 35.4573, "ARG_OF_PERICENTER": 267.2673, "MEAN_ANOMALY": 92.7814, "EPHEMERIS_TYPE": 0, "CLASSIFICATION_TYPE": "U", "NORAD_CAT_ID": 43783, "ELEMENT_SET_NO": 999, "REV_AT_EPOCH": 38548, "BSTAR": 8.4994918e-05, "MEAN_MOTION_DOT": 9.84e-06, "MEAN_MOTION_DDOT": 0}, "tle": {"line1": "1 43783U 18099AB  25360.88298100  .00000984  00000+0  84995-4 0  9993", "line2": "2 43783  97.4508  35.4573 0006441 267.2673  92.7814 14.99376275385487"}}, "geometry": {"type": "Point", "coordinates": [39.24577514359564, -24.440985501058492]}}, {"type": "Feature", "properties": {"norad_id": 43831, "name": "SAUDISAT 5A", "group": "resource", "lat": -33.289607920358044, "lon": 66.03957528761721, "alt_km": 491.2345318301641, "timestamp": "2025-12-27T06:41:30.556344+00:00", "meta": {"OBJECT_NAME": "SAUDISAT 5A", "OBJECT_ID": "2018-102A", "EPOCH": "2025-12-26T22:58:08.298336", "MEAN_MOTION": 15.25832411, "ECCENTRICITY": 0.00109172, "INCLINATION": 97.3331, "RA_OF_ASC_NODE": 60.8733, "ARG_OF_PERICENTER": 31.741, "MEAN_ANOMALY": 328.4484, "EPHEMERIS_TYPE": 0, "CLASSIFICATION_TYPE": "U", "NORAD_CAT_ID": 43831, "ELEMENT_SET_NO": 999, "REV_AT_EPOCH": 38939, "BSTAR": 0.00026636615, "MEAN_MOTION_DOT": 6.754e-05, "MEAN_MOTION_DDOT": 0}, "tle": {"line1": "1 43831U 18102A   25360.95704049  .00006754  00000+0  26637-3 0  9993", "line2": "2 43831  97.3331  60.8733 0010917  31.7410 328.4484 15.25832411389395"}}, "geometry": {"type": "Point", "coordinates": [66.03957528761721, -33.289607920358044]}}, {"type": "Feature", "properties": {"norad_id": 43833, "name": "SAUDISAT 5B", "group": "resource", "lat": 36.66701074773134, "lon": 58.444872764566995, "alt_km": 476.7295668849265, "timestamp": "2025-12-27T06:41:30.556354+00:00", "meta": {"OBJECT_NAME": "SAUDISAT 5B", "OBJECT_ID": "2018-102C", "EPOCH": "2025-12-26T22:39:45.641664", "MEAN_MOTION": 15.26177568, "ECCENTRICITY": 0.00116866, "INCLINATION": 97.3425, "RA_OF_ASC_NODE": 63.625, "ARG_OF_PERICENTER": 33.7264, "MEAN_ANOMALY": 326.4715, "EPHEMERIS_TYPE": 0, "CLASSIFICATION_TYPE": "U", "NORAD_CAT_ID": 43833, "ELEMENT_SET_NO": 999, "REV_AT_EPOCH": 38950, "BSTAR": 0.00027527654, "MEAN_MOTION_DOT": 7.058e-05, "MEAN_MOTION_DDOT": 0}, "tle": {"line1": "1 43833U 18102C   25360.94427826  .00007058  00000+0  27528-3 0  9997", "line2": "2 43833  97.3425  63.6250 0011686  33.7264 326.4715 15.26177568389503"}}, "geometry": {"type": "Point", "coordinates": [58.444872764566995, 36.66701074773134]}}, {"type": "Feature", "properties": {"norad_id": 44622, "name": "GAOFEN-10R", "group": "resource", "lat": -58.42710642624483, "lon": 115.56422252949781, "alt_km": 629.8174080270637, "timestamp": "2025-12-27T06:41:30.556365+00:00", "meta": {"OBJECT_NAME": "GAOFEN-10R", "OBJECT_ID": "2019-066A", "EPOCH": "2025-12-26T23:08:15.222912", "MEAN_MOTION": 14.82841536, "ECCENTRICITY": 0.00068139, "INCLINATION": 98.0296, "RA_OF_ASC_NODE": 308.5276, "ARG_OF_PERICENTER": 359.6634, "MEAN_ANOMALY": 0.4574, "EPHEMERIS_TYPE": 0, "CLASSIFICATION_TYPE": "U", "NORAD_CAT_ID": 44622, "ELEMENT_SET_NO": 999, "REV_AT_EPOCH": 33685, "BSTAR": 0.00025879755, "MEAN_MOTION_DOT": 2.041e-05, "MEAN_MOTION_DDOT": 0}, "tle": {"line1": "1 44622U 19066A   25360.96406508  .00002041  00000+0  25880-3 0  9996", "line2": "2 44622  98.0296 308.5276 0006813 359.6634   0.4574 14.82841536336856"}}, "geometry": {"type": "Point", "coordinates": [115.56422252949781, -58.42710642624483]}}]}